ONEWEB-0350             
1 49214U 21083AE  25320.35667168  .00000201  00000+0  51462-3 0  9991
2 49214  87.9011   2.5254 0001664  87.2481 272.8839 13.13468543202992
ONEWEB-0351             
1 49215U 21083AF  25320.45838091  .00000050  00000+0  90469-4 0  9991
2 49215  87.9185 316.8619 0002706  83.6285 276.5156 13.20771967208692
ONEWEB-0352             
1 49216U 21083AG  25319.57543819  .00000357  00000+0  94225-3 0  9997
2 49216  87.9001   2.7065 0002253  94.7812 265.3574 13.13470005202989
ONEWEB-0354             
1 49217U 21083AH  25320.48376152  .00000165  00000+0  37317-3 0  9990
2 49217  87.9191 316.8553 0001692  81.6309 278.5017 13.20772863208735
ONEWEB-0355             
1 49218U 21083AJ  25319.83288404 -.00000226  00000+0 -65422-3 0  9998
2 49218  87.9003   2.6676 0001943  90.7921 269.3431 13.13469090202890
ONEWEB-0357             
1 49219U 21083AK  25320.48061000  .00000074  00000+0  15096-3 0  9994
2 49219  87.9185 316.8532 0001953  85.8452 274.2904 13.20772833208737
ONEWEB-0332             
1 49279U 21090A   25320.46942325  .00000036  00000+0  63314-4 0  9999
2 49279  87.8978 332.0991 0002058  96.5608 263.5756 13.14501452199634
ONEWEB-0347             
1 49280U 21090B   25320.47113950  .00000119  00000+0  26173-3 0  9999
2 49280  87.9178 316.8672 0001971  98.5510 261.5847 13.20771531202966
